STARLINK-35534          
1 66202U 25243AB  26162.28206277  .00017896  00000+0  61497-3 0  9993
2 66202  53.1598 170.4912 0001335  84.1449 275.9704 15.30195228 34989
STARLINK-35548          
1 66203U 25243AC  26162.28522866  .00019440  00000+0  66681-3 0  9996
2 66203  53.1600 170.5102 0001390  88.0967 272.0193 15.30197618 34980
STARLINK-35490          
1 66204U 25243AD  26162.29156117  .00019067  00000+0  65423-3 0  9998
2 66204  53.1588 170.5516 0001186  84.1558 275.9579 15.30199652 34981
STARLINK-35748          
1 66206U 25244A   26162.25087235  .00017652  00000+0  53245-3 0  9998
2 66206  53.1582 154.6644 0001098  78.7608 281.3518 15.34393357 35997
STARLINK-35747          
1 66207U 25244B   26162.22149500  .00021777  00000+0  65369-3 0  9993
2 66207  53.1575 155.1348 0001745 150.2244 209.8858 15.34404516 35989
STARLINK-35751          
1 66208U 25244C   26162.28033258  .00015616  00000+0  47202-3 0  9993
2 66208  53.1591 154.8416 0001331  92.8088 267.3066 15.34423136 35998
STARLINK-35750          
1 66209U 25244D   26162.26560087  .00026731  00000+0  79955-3 0  9997
2 66209  53.1586 154.7512 0001502  84.8339 275.2835 15.34396356 35994
STARLINK-35740          
1 66210U 25244E   26162.25297781  .00016945  00000+0  51160-3 0  9990
2 66210  53.1578 154.6741 0001298  79.6909 280.4240 15.34394868 35991
STARLINK-35723          
1 66211U 25244F   26162.58335648 -.00020140  00000+0 -58649-3 0  9995
2 66211  53.1572 153.3329 0001221 116.4439 164.9832 15.34401194  5821
STARLINK-35710          
1 66212U 25244G   26162.20722277  .00021231  00000+0  72693-3 0  9998
2 66212  53.1554 155.8023 0001056  69.0284 291.0829 15.30198705 35971
STARLINK-34204          
1 66213U 25244H   26162.28192120  .00020201  00000+0  69225-3 0  9998
2 66213  53.1567 154.8486 0001673  83.7185 276.4006 15.30202155 35997
STARLINK-35714          
1 66214U 25244J   26162.28097998  .00018398  00000+0  63172-3 0  9995
2 66214  53.1557 155.5517 0001107  81.5896 278.5230 15.30202278 35984
STARLINK-35712          
1 66215U 25244K   26162.22821387  .00011451  00000+0  39811-3 0  9993
2 66215  53.1570 155.2237 0001219  95.1090 265.0050 15.30201943 35986
STARLINK-35709          
1 66216U 25244L   26162.26198396  .00008728  00000+0  30646-3 0  9995
2 66216  53.1567 155.4417 0001152  97.8136 262.2996 15.30199815 35983
STARLINK-35700          
1 66217U 25244M   26162.25564984  .00006981  00000+0  24764-3 0  9998
2 66217  53.1577 155.3996 0001049  81.5296 278.5824 15.30195365 35973
STARLINK-35722          
1 66218U 25244N   26162.26138964  .00018951  00000+0  57051-3 0  9990
2 66218  53.1570 154.7225 0000950  73.4214 286.6893 15.34405336 35999
STARLINK-35737          
1 66219U 25244P   26162.58335648 -.00021127  00000+0 -61589-3 0  9996
2 66219  53.1577 153.3547 0001257  98.7632 171.0262 15.34400526  5826
STARLINK-35677          
1 66220U 25244Q   26162.25928587  .00009256  00000+0  28477-3 0  9998
2 66220  53.1596 154.7087 0000999  84.2666 275.8450 15.34395116 35993
STARLINK-35704          
1 66221U 25244R   26162.25353198  .00019845  00000+0  67986-3 0  9992
2 66221  53.1591 155.3810 0001603  93.7814 266.3370 15.30224317 35988
STARLINK-35666          
1 66222U 25244S   26162.25670663  .00010080  00000+0  35202-3 0  9990
2 66222  53.1578 155.4036 0001117  82.1228 277.9899 15.30196172 35987
STARLINK-35664          
1 66223U 25244T   26162.26303858  .00016335  00000+0  56255-3 0  9991
2 66223  53.1571 155.4385 0001163  82.6401 277.4732 15.30193766 35984
STARLINK-35733          
1 66224U 25244U   26162.27675703  .00016349  00000+0  56295-3 0  9993
2 66224  53.1568 155.5224 0001105  75.3763 284.7360 15.30196765 35980
STARLINK-35734          
1 66225U 25244V   26162.25987073  .00017529  00000+0  60243-3 0  9997
2 66225  53.1571 155.4211 0001049  87.9084 272.2037 15.30206462 35981
STARLINK-34466          
1 66226U 25244W   26162.26349392  .00009836  00000+0  30190-3 0  9995
2 66226  53.1585 154.7366 0001055 106.5680 253.5438 15.34396686 35997
STARLINK-34882          
1 66227U 25244X   26162.27611610  .00022104  00000+0  66315-3 0  9993
2 66227  53.1566 154.8070 0001397  22.0442 338.0620 15.34411682 35993
STARLINK-35731          
1 66228U 25244Y   26162.25507891  .00027184  00000+0  81290-3 0  9999
2 66228  53.1584 154.6796 0001088  66.9270 293.1847 15.34394405 35995
STARLINK-35758          
1 66229U 25244Z   26162.26770238  .00021842  00000+0  65574-3 0  9990
2 66229  53.1574 154.7532 0001078  73.6338 286.4783 15.34397558 35999
STARLINK-35736          
1 66230U 25244AA  26162.25248984  .00003125  00000+0  11789-3 0  9992
2 66230  53.1575 155.3732 0000947  68.1609 291.9493 15.30116740 35981
STARLINK-35735          
1 66231U 25244AB  26162.22927203  .00003958  00000+0  14569-3 0  9991
2 66231  53.1589 155.2243 0001529  89.3149 270.8027 15.30198255 35984
STARLINK-35753          
1 66232U 25244AC  26162.27886549  .00018859  00000+0  64721-3 0  9995
2 66232  53.1551 155.5302 0001133  56.7061 303.4048 15.30202295 35981
