OBJECT_NAME,OBJECT_ID,EPOCH,MEAN_MOTION,ECCENTRICITY,INCLINATION,RA_OF_ASC_NODE,ARG_OF_PERICENTER,MEAN_ANOMALY,EPHEMERIS_TYPE,CLASSIFICATION_TYPE,NORAD_CAT_ID,ELEMENT_SET_NO,REV_AT_EPOCH,BSTAR,MEAN_MOTION_DOT,MEAN_MOTION_DDOT
STARLINK-35534,2025-243AB,2026-06-11T06:46:10.223328,15.30195228,.00013359,53.1598,170.4912,84.1449,275.9704,0,U,66202,999,3498,.61497391E-3,.17896E-3,0
STARLINK-35548,2025-243AC,2026-06-11T06:50:43.756224,15.30197618,.000139,53.1600,170.5102,88.0967,272.0193,0,U,66203,999,3498,.66680639E-3,.1944E-3,0
STARLINK-35490,2025-243AD,2026-06-11T06:59:50.885088,15.30199652,.00011869,53.1588,170.5516,84.1558,275.9579,0,U,66204,999,3498,.65423348E-3,.19067E-3,0
STARLINK-35748,2025-244A,2026-06-11T06:01:15.371040,15.34393357,.00010985,53.1582,154.6644,78.7608,281.3518,0,U,66206,999,3599,.53244927E-3,.17652E-3,0
STARLINK-35747,2025-244B,2026-06-11T05:18:57.168000,15.34404516,.00017454,53.1575,155.1348,150.2244,209.8858,0,U,66207,999,3598,.65368979E-3,.21777E-3,0
STARLINK-35751,2025-244C,2026-06-11T06:43:40.734912,15.34423136,.00013311,53.1591,154.8416,92.8088,267.3066,0,U,66208,999,3599,.47201609E-3,.15616E-3,0
STARLINK-35750,2025-244D,2026-06-11T06:22:27.915168,15.34396356,.00015024,53.1586,154.7512,84.8339,275.2835,0,U,66209,999,3599,.7995533E-3,.26731E-3,0
STARLINK-35740,2025-244E,2026-06-11T06:04:17.282784,15.34394868,.00012988,53.1578,154.6741,79.6909,280.4240,0,U,66210,999,3599,.51160466E-3,.16945E-3,0
STARLINK-35723,2025-244F,2026-06-11T14:00:01.999872,15.34401194,.00012217,53.1572,153.3329,116.4439,164.9832,0,U,66211,999,582,-.58648997E-3,-.2014E-3,0
STARLINK-35710,2025-244G,2026-06-11T04:58:24.047328,15.30198705,.00010561,53.1554,155.8023,69.0284,291.0829,0,U,66212,999,3597,.72693131E-3,.21231E-3,0
STARLINK-34204,2025-244H,2026-06-11T06:45:57.991680,15.30202155,.00016736,53.1567,154.8486,83.7185,276.4006,0,U,66213,999,3599,.69225247E-3,.20201E-3,0
STARLINK-35714,2025-244J,2026-06-11T06:44:36.670272,15.30202278,.0001107,53.1557,155.5517,81.5896,278.5230,0,U,66214,999,3598,.63171694E-3,.18398E-3,0
STARLINK-35712,2025-244K,2026-06-11T05:28:37.678368,15.30201943,.00012191,53.1570,155.2237,95.1090,265.0050,0,U,66215,999,3598,.39810682E-3,.11451E-3,0
STARLINK-35709,2025-244L,2026-06-11T06:17:15.414144,15.30199815,.0001152,53.1567,155.4417,97.8136,262.2996,0,U,66216,999,3598,.30646463E-3,.8728E-4,0
STARLINK-35700,2025-244M,2026-06-11T06:08:08.146176,15.30195365,.00010495,53.1577,155.3996,81.5296,278.5824,0,U,66217,999,3597,.24764491E-3,.6981E-4,0
STARLINK-35722,2025-244N,2026-06-11T06:16:24.064896,15.34405336,.00009504,53.1570,154.7225,73.4214,286.6893,0,U,66218,999,3599,.57050857E-3,.18951E-3,0
STARLINK-35737,2025-244P,2026-06-11T14:00:01.999872,15.34400526,.00012578,53.1577,153.3547,98.7632,171.0262,0,U,66219,999,582,-.615887E-3,-.21127E-3,0
STARLINK-35677,2025-244Q,2026-06-11T06:13:22.299168,15.34395116,.00009995,53.1596,154.7087,84.2666,275.8450,0,U,66220,999,3599,.28477442E-3,.9256E-4,0
STARLINK-35704,2025-244R,2026-06-11T06:05:05.163072,15.30224317,.00016031,53.1591,155.3810,93.7814,266.3370,0,U,66221,999,3598,.67985843E-3,.19845E-3,0
STARLINK-35666,2025-244S,2026-06-11T06:09:39.452832,15.30196172,.00011174,53.1578,155.4036,82.1228,277.9899,0,U,66222,999,3598,.35201823E-3,.1008E-3,0
STARLINK-35664,2025-244T,2026-06-11T06:18:46.533312,15.30193766,.00011637,53.1571,155.4385,82.6401,277.4732,0,U,66223,999,3598,.56254527E-3,.16335E-3,0
STARLINK-35733,2025-244U,2026-06-11T06:38:31.807392,15.30196765,.00011059,53.1568,155.5224,75.3763,284.7360,0,U,66224,999,3598,.56295011E-3,.16349E-3,0
STARLINK-35734,2025-244V,2026-06-11T06:14:12.831072,15.30206462,.00010493,53.1571,155.4211,87.9084,272.2037,0,U,66225,999,3598,.60243106E-3,.17529E-3,0
STARLINK-34466,2025-244W,2026-06-11T06:19:25.874688,15.34396686,.00010551,53.1585,154.7366,106.5680,253.5438,0,U,66226,999,3599,.30190303E-3,.9836E-4,0
STARLINK-34882,2025-244X,2026-06-11T06:37:36.431040,15.34411682,.00013975,53.1566,154.8070,22.0442,338.0620,0,U,66227,999,3599,.66314825E-3,.22104E-3,0
STARLINK-35731,2025-244Y,2026-06-11T06:07:18.817824,15.34394405,.00010882,53.1584,154.6796,66.9270,293.1847,0,U,66228,999,3599,.81290008E-3,.27184E-3,0
STARLINK-35758,2025-244Z,2026-06-11T06:25:29.485632,15.34397558,.00010782,53.1574,154.7532,73.6338,286.4783,0,U,66229,999,3599,.65574306E-3,.21842E-3,0
STARLINK-35736,2025-244AA,2026-06-11T06:03:35.122176,15.30116740,.00009479,53.1575,155.3732,68.1609,291.9493,0,U,66230,999,3598,.11788713E-3,.3125E-4,0
STARLINK-35735,2025-244AB,2026-06-11T05:30:09.103392,15.30198255,.00015294,53.1589,155.2243,89.3149,270.8027,0,U,66231,999,3598,.14568983E-3,.3958E-4,0
STARLINK-35753,2025-244AC,2026-06-11T06:41:33.978336,15.30202295,.00011332,53.1551,155.5302,56.7061,303.4048,0,U,66232,999,3598,.64720833E-3,.18859E-3,0
